ONEWEB-0033             
1 45142U 20008M   26026.48603396  .00000288  00000+0  78934-3 0  9992
2 45142  87.8753  64.5259 0001636 114.1187 246.0112 13.10370828289655
ONEWEB-0035             
1 45143U 20008N   26026.36401625 -.00000674  00000+0 -19682-2 0  9996
2 45143  87.8762  64.5491 0001733  99.2978 260.8345 13.10374105289365
ONEWEB-0036             
1 45144U 20008P   26026.50676707 -.00000538  00000+0 -15780-2 0  9992
2 45144  87.8769  64.4831 0002064  90.7263 269.4101 13.10370751289819
ONEWEB-0038             
1 45145U 20008Q   26026.48577114 -.00000135  00000+0 -41671-3 0  9994
2 45145  87.8824  49.2652 0000765  22.8802 337.2360 13.11418133291750
ONEWEB-0039             
1 45146U 20008R   26026.48936041  .00000224  00000+0  60650-3 0  9998
2 45146  87.8768  64.5038 0002041  82.3575 277.7784 13.10370129289603
ONEWEB-0040             
1 45147U 20008S   26026.48272484  .00000519  00000+0  14495-2 0  9995
2 45147  87.8758  64.5259 0001775  95.7255 264.4075 13.10370543289307
ONEWEB-0043             
1 45149U 20008U   26026.48438543  .00000455  00000+0  12669-2 0  9997
2 45149  87.8758  64.5074 0002107  81.4855 278.6511 13.10369645289620
ONEWEB-0044             
1 45150U 20008V   26026.51260392 -.00001081  00000+0 -31348-2 0  9991
2 45150  87.8760  64.4951 0002074  90.0730 270.0635 13.10364289289924
